NORAD_CAT_ID,OBJECT_NAME,OBJECT_TYPE,EPOCH,MEAN_MOTION,ECCENTRICITY,INCLINATION,RA_OF_ASC_NODE,ARG_OF_PERICENTER,MEAN_ANOMALY,BSTAR,MEAN_MOTION_DOT,MEAN_MOTION_DDOT,TLE_LINE0,TLE_LINE1,TLE_LINE2,SEMIMAJOR_AXIS,PERIOD,APOGEE,PERIGEE,DECAYED
50207.0,STARLINK-3262,PAYLOAD,2023-11-27 13:39:36,15.08816131,0.0001597,53.2179,19.1435,94.4759,265.6415,-0.0002814,-4.761e-05,0.0,0 STARLINK-3262,1 50207U 21125BD  23331.56917417 -.00004761  00000-0 -28140-3 0  9995,2 50207  53.2179  19.1435 0001597  94.4759 265.6415 15.08816131108952,6917.953,95.439,540.923,538.714,0.0
50207.0,STARLINK-3262,PAYLOAD,2023-11-27 23:11:55,15.08822419,0.0001781,53.2188,17.3659,57.6884,302.428,-9.6907e-05,-1.829e-05,0.0,0 STARLINK-3262,1 50207U 21125BD  23331.96660894 -.00001829  00000-0 -96907-4 0  9992,2 50207  53.2188  17.3659 0001781  57.6884 302.4280 15.08822419109019,6917.934,95.439,541.031,538.567,0.0
50207.0,STARLINK-3262,PAYLOAD,2023-11-28 08:44:12,15.08839801,0.0001985,53.2197,15.5838,98.9649,261.1568,5.5892e-05,6.01e-06,0.0,0 STARLINK-3262,1 50207U 21125BD  23332.36403457  .00000601  00000-0  55892-4 0  9990,2 50207  53.2197  15.5838 0001985  98.9649 261.1568 15.08839801109070,6917.881,95.438,541.119,538.373,0.0
50207.0,STARLINK-3262,PAYLOAD,2023-11-29 11:45:45,15.08846216,0.0001924,53.2189,10.5237,96.6434,263.4777,0.00051645,7.942e-05,0.0,0 STARLINK-3262,1 50207U 21125BD  23333.49010702  .00007942  00000-0  51645-3 0  9998,2 50207  53.2189  10.5237 0001924  96.6434 263.4777 15.08846216109243,6917.861,95.437,541.057,538.395,0.0
50207.0,STARLINK-3262,PAYLOAD,2023-11-30 11:36:30,15.0888229,0.0001959,53.2183,6.0605,93.372,266.7496,0.00046514,7.131e-05,0.0,0 STARLINK-3262,1 50207U 21125BD  23334.48368765  .00007131  00000-0  46514-3 0  9992,2 50207  53.2183   6.0605 0001959  93.3720 266.7496 15.08882290109398,6917.751,95.435,540.971,538.261,0.0
50207.0,STARLINK-3262,PAYLOAD,2023-12-01 01:54:59,15.08842953,0.0001849,53.2183,3.3855,102.019,258.101,-0.00037181,-6.201e-05,0.0,0 STARLINK-3262,1 50207U 21125BD  23335.07985822 -.00006201  00000-0 -37181-3 0  9996,2 50207  53.2183   3.3855 0001849 102.0190 258.1010 15.08842953109481,6917.871,95.437,541.015,538.457,0.0
50207.0,STARLINK-3262,PAYLOAD,2023-12-01 08:16:32,15.08836861,0.000155,53.2181,2.1928,102.7912,257.3254,-0.00033678,-5.643e-05,0.0,0 STARLINK-3262,1 50207U 21125BD  23335.34482177 -.00005643  00000-0 -33678-3 0  9997,2 50207  53.2181   2.1928 0001550 102.7912 257.3254 15.08836861109522,6917.89,95.438,540.827,538.683,0.0
50207.0,STARLINK-3262,PAYLOAD,2023-12-02 08:07:19,15.08872935,0.000191,53.2171,357.7393,62.8863,297.2323,0.0010358,0.0001625,0.0,0 STARLINK-3262,1 50207U 21125BD  23336.33841627  .00016250  00000-0  10358-2 0  9999,2 50207  53.2171 357.7393 0001910  62.8863 297.2323 15.08872935109675,6917.78,95.435,540.966,538.323,0.0
50207.0,STARLINK-3262,PAYLOAD,2023-12-03 01:36:34,15.08820365,0.0001302,53.2177,354.4581,134.6193,225.4906,-0.00029256,-4.938e-05,0.0,0 STARLINK-3262,1 50207U 21125BD  23337.06706990 -.00004938  00000-0 -29256-3 0  9993,2 50207  53.2177 354.4581 0001302 134.6193 225.4906 15.08820365109785,6917.94,95.439,540.706,538.905,0.0
50207.0,STARLINK-3262,PAYLOAD,2023-12-03 07:58:08,15.08776568,0.0001713,53.2185,353.2773,113.4721,246.6452,0.0010101,0.00015796,0.0,0 STARLINK-3262,1 50207U 21125BD  23337.33204221  .00015796  00000-0  10101-2 0  9993,2 50207  53.2185 353.2773 0001713 113.4721 246.6452 15.08776568109823,6918.074,95.442,541.124,538.754,0.0
50207.0,STARLINK-3262,PAYLOAD,2023-12-04 01:27:24,15.08823034,0.0001675,53.2187,350.006,114.8029,245.3137,0.0013225,0.00020812,0.0,0 STARLINK-3262,1 50207U 21125BD  23338.06070007  .00020812  00000-0  13225-2 0  9992,2 50207  53.2187 350.0060 0001675 114.8029 245.3137 15.08823034109931,6917.932,95.439,540.956,538.638,0.0
50207.0,STARLINK-3262,PAYLOAD,2023-12-04 07:48:57,15.08842821,0.0001844,53.2179,348.8187,119.2207,240.897,0.0014552,0.00022949,0.0,0 STARLINK-3262,1 50207U 21125BD  23338.32565976  .00022949  00000-0  14552-2 0  9992,2 50207  53.2179 348.8187 0001844 119.2207 240.8970 15.08842821109976,6917.872,95.437,541.012,538.461,0.0
50207.0,STARLINK-3262,PAYLOAD,2023-12-05 01:18:07,15.08948449,0.0001523,53.2183,345.5469,119.205,240.9094,0.0020163,0.00032043,0.0,0 STARLINK-3262,1 50207U 21125BD  23339.05424773  .00032043  00000-0  20163-2 0  9993,2 50207  53.2183 345.5469 0001523 119.2050 240.9094 15.08948449110083,6917.549,95.431,540.467,538.36,0.0
50207.0,STARLINK-3262,PAYLOAD,2023-12-05 06:04:17,15.0886261,0.0001609,53.2185,344.6541,119.6698,240.4455,-0.0016687,-0.00026764,0.0,0 STARLINK-3262,1 50207U 21125BD  23339.25297793 -.00026764  00000-0 -16687-2 0  9996,2 50207  53.2185 344.6541 0001609 119.6698 240.4455 15.08862610110118,6917.811,95.436,540.789,538.563,0.0
50207.0,STARLINK-3262,PAYLOAD,2023-12-06 10:41:15,15.08813987,0.0001509,53.2174,339.3006,110.8583,249.2571,-0.00051336,-8.443e-05,0.0,0 STARLINK-3262,1 50207U 21125BD  23340.44532398 -.00008443  00000-0 -51336-3 0  9997,2 50207  53.2174 339.3006 0001509 110.8583 249.2571 15.08813987110296,6917.96,95.439,540.869,538.781,0.0
50207.0,STARLINK-3262,PAYLOAD,2023-12-06 13:52:02,15.08815723,0.0001496,53.2182,338.7058,109.7167,250.3987,-0.00051192,-8.42e-05,0.0,0 STARLINK-3262,1 50207U 21125BD  23340.57780833 -.00008420  00000-0 -51192-3 0  9995,2 50207  53.2182 338.7058 0001496 109.7167 250.3987 15.08815723110312,6917.955,95.439,540.855,538.785,0.0
50207.0,STARLINK-3262,PAYLOAD,2023-12-07 04:10:30,15.08866441,0.0001061,53.2184,336.0282,96.1093,264.002,-0.00083783,-0.00013607,0.0,0 STARLINK-3262,1 50207U 21125BD  23341.17396036 -.00013607  00000-0 -83783-3 0  9994,2 50207  53.2184 336.0282 0001061  96.1093 264.0020 15.08866441110402,6917.8,95.436,540.399,538.931,0.0
50207.0,STARLINK-3262,PAYLOAD,2023-12-07 08:56:40,15.08832554,0.0001671,53.2182,335.1363,119.6024,240.5135,-0.00022318,-3.837e-05,0.0,0 STARLINK-3262,1 50207U 21125BD  23341.37269169 -.00003837  00000-0 -22318-3 0  9993,2 50207  53.2182 335.1363 0001671 119.6024 240.5135 15.08832554110439,6917.903,95.438,540.924,538.612,0.0
50207.0,STARLINK-3262,PAYLOAD,2023-12-08 08:47:28,15.08839272,0.0001404,53.2174,330.6761,83.5676,276.5476,0.00061388,9.495e-05,0.0,0 STARLINK-3262,1 50207U 21125BD  23342.36630077  .00009495  00000-0  61388-3 0  9997,2 50207  53.2174 330.6761 0001404  83.5676 276.5476 15.08839272110585,6917.883,95.438,540.719,538.776,0.0
50207.0,STARLINK-3262,PAYLOAD,2023-12-09 03:52:06,15.08837332,0.0001785,53.217,327.1061,94.8394,265.2802,0.00026309,3.901e-05,0.0,0 STARLINK-3262,1 50207U 21125BD  23343.16118911  .00003901  00000-0  26309-3 0  9994,2 50207  53.2170 327.1061 0001785  94.8394 265.2802 15.08837332110706,6917.889,95.438,540.988,538.519,0.0
50207.0,STARLINK-3262,PAYLOAD,2023-12-09 08:38:15,15.08844858,0.0001565,53.2171,326.2134,89.4679,270.6493,0.0003479,5.254e-05,0.0,0 STARLINK-3262,1 50207U 21125BD  23343.35990625  .00005254  00000-0  34790-3 0  9991,2 50207  53.2171 326.2134 0001565  89.4679 270.6493 15.08844858110730,6917.866,95.437,540.813,538.648,0.0
50207.0,STARLINK-3262,PAYLOAD,2023-12-09 22:56:42,15.0886746,0.0001635,53.2179,323.5376,96.7553,263.3625,0.00045768,7.009e-05,0.0,0 STARLINK-3262,1 50207U 21125BD  23343.95605164  .00007009  00000-0  45768-3 0  9995,2 50207  53.2179 323.5376 0001635  96.7553 263.3625 15.08867460110826,6917.796,95.436,540.793,538.53,0.0
50207.0,STARLINK-3262,PAYLOAD,2023-12-10 08:29:00,15.08879394,0.0001671,53.2174,321.7534,90.5837,269.5346,0.00073965,0.00011516,0.0,0 STARLINK-3262,1 50207U 21125BD  23344.35348344  .00011516  00000-0  73965-3 0  9992,2 50207  53.2174 321.7534 0001671  90.5837 269.5346 15.08879394110887,6917.76,95.435,540.781,538.469,0.0
50207.0,STARLINK-3262,PAYLOAD,2023-12-10 22:47:28,15.08858417,0.0001525,53.2162,319.0778,91.3067,268.81,-4.9321e-05,-1.073e-05,0.0,0 STARLINK-3262,1 50207U 21125BD  23344.94963987 -.00001073  00000-0 -49321-4 0  9992,2 50207  53.2162 319.0778 0001525  91.3067 268.8100 15.08858417110979,6917.824,95.436,540.744,538.634,0.0
50207.0,STARLINK-3262,PAYLOAD,2023-12-11 03:33:38,15.08852563,0.0001788,53.2172,318.1836,108.1894,251.9293,-0.0001404,-2.523e-05,0.0,0 STARLINK-3262,1 50207U 21125BD  23345.14835992 -.00002523  00000-0 -14040-3 0  9999,2 50207  53.2172 318.1836 0001788 108.1894 251.9293 15.08852563111008,6917.842,95.437,540.944,538.47,0.0
50207.0,STARLINK-3262,PAYLOAD,2023-12-11 05:09:01,15.08853036,0.0001445,53.2169,317.8884,96.4749,263.6407,-5.6756e-05,-1.191e-05,0.0,0 STARLINK-3262,1 50207U 21125BD  23345.21460091 -.00001191  00000-0 -56756-4 0  9992,2 50207  53.2169 317.8884 0001445  96.4749 263.6407 15.08853036111015,6917.841,95.437,540.705,538.706,0.0
50207.0,STARLINK-3262,PAYLOAD,2023-12-12 03:24:28,15.08779137,0.0002699,53.2175,313.7254,98.0419,262.088,0.0017511,0.00027645,0.0,0 STARLINK-3262,1 50207U 21125BD  23346.14199976  .00027645  00000-0  17511-2 0  9990,2 50207  53.2175 313.7254 0002699  98.0419 262.0880 15.08779137111154,6918.066,95.441,541.799,538.064,0.0
50207.0,STARLINK-3262,PAYLOAD,2023-12-12 04:59:48,15.08846546,0.0001714,53.2176,313.4279,97.1682,262.9505,-0.00013716,-2.471e-05,0.0,0 STARLINK-3262,1 50207U 21125BD  23346.20820077 -.00002471  00000-0 -13716-3 0  9996,2 50207  53.2176 313.4279 0001714  97.1682 262.9505 15.08846546111161,6917.86,95.437,540.911,538.54,0.0
50207.0,STARLINK-3262,PAYLOAD,2023-12-13 03:15:12,15.0883981,0.0001685,53.2179,309.2651,102.3194,257.7987,9.9174e-05,1.291e-05,0.0,0 STARLINK-3262,1 50207U 21125BD  23347.13556599  .00001291  00000-0  99174-4 0  9994,2 50207  53.2179 309.2651 0001685 102.3194 257.7987 15.08839810111303,6917.881,95.438,540.912,538.58,0.0
50207.0,STARLINK-3262,PAYLOAD,2023-12-14 03:06:00,15.08840411,0.0001596,53.2176,304.8071,98.6289,261.4884,9.3284e-05,1.197e-05,0.0,0 STARLINK-3262,1 50207U 21125BD  23348.12916759  .00001197  00000-0  93284-4 0  9993,2 50207  53.2176 304.8071 0001596  98.6289 261.4884 15.08840411111453,6917.879,95.438,540.848,538.64,0.0
